CCSDS_OMM_VERS = 2.0
CREATION_DATE  = 
ORIGINATOR     = 

OBJECT_NAME    = UNKNOWN
OBJECT_ID      = 
CENTER_NAME    = EARTH
REF_FRAME      = TEME
TIME_SYSTEM    = UTC
MEAN_ELEMENT_THEORY = SGP/SGP4

EPOCH          = 2025-11-01T09:26:13.552224
MEAN_MOTION    = 13.54465426
ECCENTRICITY   = .0109103
INCLINATION    = 99.4380
RA_OF_ASC_NODE = 1.0994
ARG_OF_PERICENTER = 52.9910
MEAN_ANOMALY   = 308.1152

EPHEMERIS_TYPE = 0
CLASSIFICATION_TYPE = U
NORAD_CAT_ID   = 82311
ELEMENT_SET_NO = 999
REV_AT_EPOCH   = 54472
BSTAR          = .10507E-2
MEAN_MOTION_DOT = .704E-5
MEAN_MOTION_DDOT = 0

CCSDS_OMM_VERS = 2.0
CREATION_DATE  = 
ORIGINATOR     = 

OBJECT_NAME    = UNKNOWN
OBJECT_ID      = 
CENTER_NAME    = EARTH
REF_FRAME      = TEME
TIME_SYSTEM    = UTC
MEAN_ELEMENT_THEORY = SGP/SGP4

EPOCH          = 2025-11-01T15:09:44.466624
MEAN_MOTION    = 13.15574703
ECCENTRICITY   = .0459594
INCLINATION    = 66.9348
RA_OF_ASC_NODE = 281.9851
ARG_OF_PERICENTER = 192.2796
MEAN_ANOMALY   = 166.6735

EPHEMERIS_TYPE = 0
CLASSIFICATION_TYPE = U
NORAD_CAT_ID   = 82363
ELEMENT_SET_NO = 999
REV_AT_EPOCH   = 28485
BSTAR          = .91703E-3
MEAN_MOTION_DOT = .53E-5
MEAN_MOTION_DDOT = 0

CCSDS_OMM_VERS = 2.0
CREATION_DATE  = 
ORIGINATOR     = 

OBJECT_NAME    = UNKNOWN
OBJECT_ID      = 
CENTER_NAME    = EARTH
REF_FRAME      = TEME
TIME_SYSTEM    = UTC
MEAN_ELEMENT_THEORY = SGP/SGP4

EPOCH          = 2025-11-01T07:29:35.842560
MEAN_MOTION    = 13.98129206
ECCENTRICITY   = .0084344
INCLINATION    = 98.9017
RA_OF_ASC_NODE = 321.6318
ARG_OF_PERICENTER = 93.4638
MEAN_ANOMALY   = 267.6178

EPHEMERIS_TYPE = 0
CLASSIFICATION_TYPE = U
NORAD_CAT_ID   = 82369
ELEMENT_SET_NO = 999
REV_AT_EPOCH   = 55138
BSTAR          = .11649E-3
MEAN_MOTION_DOT = .129E-5
MEAN_MOTION_DDOT = 0

CCSDS_OMM_VERS = 2.0
CREATION_DATE  = 
ORIGINATOR     = 

OBJECT_NAME    = UNKNOWN
OBJECT_ID      = 
CENTER_NAME    = EARTH
REF_FRAME      = TEME
TIME_SYSTEM    = UTC
MEAN_ELEMENT_THEORY = SGP/SGP4

EPOCH          = 2025-11-01T13:47:55.929696
MEAN_MOTION    = 14.77973198
ECCENTRICITY   = .0009145
INCLINATION    = 98.3989
RA_OF_ASC_NODE = 168.5085
ARG_OF_PERICENTER = 289.9080
MEAN_ANOMALY   = 70.1144

EPHEMERIS_TYPE = 0
CLASSIFICATION_TYPE = U
NORAD_CAT_ID   = 82381
ELEMENT_SET_NO = 999
REV_AT_EPOCH   = 50472
BSTAR          = .30536E-2
MEAN_MOTION_DOT = .22043E-3
MEAN_MOTION_DDOT = 0

CCSDS_OMM_VERS = 2.0
CREATION_DATE  = 
ORIGINATOR     = 

OBJECT_NAME    = UNKNOWN
OBJECT_ID      = 
CENTER_NAME    = EARTH
REF_FRAME      = TEME
TIME_SYSTEM    = UTC
MEAN_ELEMENT_THEORY = SGP/SGP4

EPOCH          = 2025-11-01T15:04:37.157376
MEAN_MOTION    = 15.02760742
ECCENTRICITY   = .0006905
INCLINATION    = 86.6662
RA_OF_ASC_NODE = 173.3414
ARG_OF_PERICENTER = 332.4789
MEAN_ANOMALY   = 27.6078

EPHEMERIS_TYPE = 0
CLASSIFICATION_TYPE = U
NORAD_CAT_ID   = 82402
ELEMENT_SET_NO = 999
REV_AT_EPOCH   = 44829
BSTAR          = .45124E-3
MEAN_MOTION_DOT = .6062E-4
MEAN_MOTION_DDOT = 0

CCSDS_OMM_VERS = 2.0
CREATION_DATE  = 
ORIGINATOR     = 

OBJECT_NAME    = UNKNOWN
OBJECT_ID      = 
CENTER_NAME    = EARTH
REF_FRAME      = TEME
TIME_SYSTEM    = UTC
MEAN_ELEMENT_THEORY = SGP/SGP4

EPOCH          = 2025-10-29T18:12:51.374016
MEAN_MOTION    = 14.58270752
ECCENTRICITY   = .0057022
INCLINATION    = 74.0082
RA_OF_ASC_NODE = 64.4530
ARG_OF_PERICENTER = 239.9565
MEAN_ANOMALY   = 119.5937

EPHEMERIS_TYPE = 0
CLASSIFICATION_TYPE = U
NORAD_CAT_ID   = 82432
ELEMENT_SET_NO = 999
REV_AT_EPOCH   = 47649
BSTAR          = .7969E-3
MEAN_MOTION_DOT = .3737E-4
MEAN_MOTION_DDOT = 0

CCSDS_OMM_VERS = 2.0
CREATION_DATE  = 
ORIGINATOR     = 

OBJECT_NAME    = UNKNOWN
OBJECT_ID      = 
CENTER_NAME    = EARTH
REF_FRAME      = TEME
TIME_SYSTEM    = UTC
MEAN_ELEMENT_THEORY = SGP/SGP4

EPOCH          = 2025-11-01T05:13:55.816032
MEAN_MOTION    = 15.02938086
ECCENTRICITY   = .0011704
INCLINATION    = 85.8742
RA_OF_ASC_NODE = 221.4923
ARG_OF_PERICENTER = 61.0147
MEAN_ANOMALY   = 299.2257

EPHEMERIS_TYPE = 0
CLASSIFICATION_TYPE = U
NORAD_CAT_ID   = 82448
ELEMENT_SET_NO = 999
REV_AT_EPOCH   = 43080
BSTAR          = .58852E-3
MEAN_MOTION_DOT = .7945E-4
MEAN_MOTION_DDOT = 0

CCSDS_OMM_VERS = 2.0
CREATION_DATE  = 
ORIGINATOR     = 

OBJECT_NAME    = UNKNOWN
OBJECT_ID      = 
CENTER_NAME    = EARTH
REF_FRAME      = TEME
TIME_SYSTEM    = UTC
MEAN_ELEMENT_THEORY = SGP/SGP4

EPOCH          = 2025-11-01T14:23:09.692736
MEAN_MOTION    = 12.39698968
ECCENTRICITY   = .0093774
INCLINATION    = 102.1697
RA_OF_ASC_NODE = 262.0074
ARG_OF_PERICENTER = 283.3240
MEAN_ANOMALY   = 75.7380

EPHEMERIS_TYPE = 0
CLASSIFICATION_TYPE = U
NORAD_CAT_ID   = 82453
ELEMENT_SET_NO = 999
REV_AT_EPOCH   = 54096
BSTAR          = .36112E-3
MEAN_MOTION_DOT = .3E-7
MEAN_MOTION_DDOT = 0

CCSDS_OMM_VERS = 2.0
CREATION_DATE  = 
ORIGINATOR     = 

OBJECT_NAME    = UNKNOWN
OBJECT_ID      = 
CENTER_NAME    = EARTH
REF_FRAME      = TEME
TIME_SYSTEM    = UTC
MEAN_ELEMENT_THEORY = SGP/SGP4

EPOCH          = 2025-10-24T18:33:12.902400
MEAN_MOTION    = 14.22335814
ECCENTRICITY   = .0044906
INCLINATION    = 66.5148
RA_OF_ASC_NODE = 311.0021
ARG_OF_PERICENTER = 40.7381
MEAN_ANOMALY   = 319.7055

EPHEMERIS_TYPE = 0
CLASSIFICATION_TYPE = U
NORAD_CAT_ID   = 82458
ELEMENT_SET_NO = 999
REV_AT_EPOCH   = 60307
BSTAR          = .17103E-2
MEAN_MOTION_DOT = .3765E-4
MEAN_MOTION_DDOT = 0

CCSDS_OMM_VERS = 2.0
CREATION_DATE  = 
ORIGINATOR     = 

OBJECT_NAME    = UNKNOWN
OBJECT_ID      = 
CENTER_NAME    = EARTH
REF_FRAME      = TEME
TIME_SYSTEM    = UTC
MEAN_ELEMENT_THEORY = SGP/SGP4

EPOCH          = 2025-10-31T12:44:21.305760
MEAN_MOTION    = 13.55767651
ECCENTRICITY   = .0043495
INCLINATION    = 99.3614
RA_OF_ASC_NODE = 328.3185
ARG_OF_PERICENTER = 302.9044
MEAN_ANOMALY   = 56.7913

EPHEMERIS_TYPE = 0
CLASSIFICATION_TYPE = U
NORAD_CAT_ID   = 82484
ELEMENT_SET_NO = 999
REV_AT_EPOCH   = 58491
BSTAR          = .3109E-3
MEAN_MOTION_DOT = .176E-5
MEAN_MOTION_DDOT = 0

CCSDS_OMM_VERS = 2.0
CREATION_DATE  = 
ORIGINATOR     = 

OBJECT_NAME    = UNKNOWN
OBJECT_ID      = 
CENTER_NAME    = EARTH
REF_FRAME      = TEME
TIME_SYSTEM    = UTC
MEAN_ELEMENT_THEORY = SGP/SGP4

EPOCH          = 2025-11-01T03:54:23.004864
MEAN_MOTION    = 14.83709631
ECCENTRICITY   = .0005607
INCLINATION    = 74.0075
RA_OF_ASC_NODE = 104.4940
ARG_OF_PERICENTER = 238.9167
MEAN_ANOMALY   = 121.1461

EPHEMERIS_TYPE = 0
CLASSIFICATION_TYPE = U
NORAD_CAT_ID   = 82494
ELEMENT_SET_NO = 999
REV_AT_EPOCH   = 7879
BSTAR          = .25162E-2
MEAN_MOTION_DOT = .2084E-3
MEAN_MOTION_DDOT = 0

CCSDS_OMM_VERS = 2.0
CREATION_DATE  = 
ORIGINATOR     = 

OBJECT_NAME    = UNKNOWN
OBJECT_ID      = 
CENTER_NAME    = EARTH
REF_FRAME      = TEME
TIME_SYSTEM    = UTC
MEAN_ELEMENT_THEORY = SGP/SGP4

EPOCH          = 2025-10-16T04:55:05.261664
MEAN_MOTION    = 14.17743097
ECCENTRICITY   = .0121236
INCLINATION    = 70.9658
RA_OF_ASC_NODE = 125.5502
ARG_OF_PERICENTER = 203.7517
MEAN_ANOMALY   = 155.7984

EPHEMERIS_TYPE = 0
CLASSIFICATION_TYPE = U
NORAD_CAT_ID   = 82500
ELEMENT_SET_NO = 999
REV_AT_EPOCH   = 61079
BSTAR          = .19502E-2
MEAN_MOTION_DOT = .4229E-4
MEAN_MOTION_DDOT = 0

