UNKNOWN                 
1 82311U          25305.39321241  .00000704  00000+0  10507-2 0  9990
2 82311  99.4380   1.0994 0109103  52.9910 308.1152 13.54465426544725
UNKNOWN                 
1 82363U          25305.63176466  .00000530  00000+0  91703-3 0  9996
2 82363  66.9348 281.9851 0459594 192.2796 166.6735 13.15574703284853
UNKNOWN                 
1 82369U          25305.31222040  .00000129  00000+0  11649-3 0  9992
2 82369  98.9017 321.6318 0084344  93.4638 267.6178 13.98129206551384
UNKNOWN                 
1 82381U          25305.57495289  .00022043  00000+0  30536-2 0  9995
2 82381  98.3989 168.5085 0009145 289.9080  70.1144 14.77973198504729
UNKNOWN                 
1 82402U          25305.62820784  .00006062  00000+0  45124-3 0  9990
2 82402  86.6662 173.3414 0006905 332.4789  27.6078 15.02760742448292
UNKNOWN                 
1 82432U          25302.75892794  .00003737  00000+0  79690-3 0  9995
2 82432  74.0082  64.4530 0057022 239.9565 119.5937 14.58270752476495
UNKNOWN                 
1 82448U          25305.21800713  .00007945  00000+0  58852-3 0  9998
2 82448  85.8742 221.4923 0011704  61.0147 299.2257 15.02938086430800
UNKNOWN                 
1 82453U          25305.59941774  .00000003  00000+0  36112-3 0  9991
2 82453 102.1697 262.0074 0093774 283.3240  75.7380 12.39698968540968
UNKNOWN                 
1 82458U          25297.77306600  .00003765  00000+0  17103-2 0  9995
2 82458  66.5148 311.0021 0044906  40.7381 319.7055 14.22335814603072
UNKNOWN                 
1 82484U          25304.53080215  .00000176  00000+0  31090-3 0  9993
2 82484  99.3614 328.3185 0043495 302.9044  56.7913 13.55767651584911
UNKNOWN                 
1 82494U          25305.16276626  .00020840  00000+0  25162-2 0  9999
2 82494  74.0075 104.4940 0005607 238.9167 121.1461 14.83709631 78797
UNKNOWN                 
1 82500U          25289.20492201  .00004229  00000+0  19502-2 0  9996
2 82500  70.9658 125.5502 0121236 203.7517 155.7984 14.17743097610797
